{"type": "FeatureCollection", "features": [ {"type": "Feature", "properties": {"norad_id": 40664, "name": "SKY MEXICO-1", "group": "intelsat", "lat": 0.01257851665923674, "lon": 65.65279045132624, "alt_km": 35794.76341007355, "timestamp": "2025-12-15T04:01:20.110783+00:00", "meta": {"OBJECT_NAME": "SKY MEXICO-1", "OBJECT_ID": "2015-026B", "EPOCH": "2025-12-14T06:11:46.466016", "MEAN_MOTION": 1.00272081, "ECCENTRICITY": 0.00024768, "INCLINATION": 0.0405, "RA_OF_ASC_NODE": 81.3311, "ARG_OF_PERICENTER": 198.4179, "MEAN_ANOMALY": 177.6111, "EPHEMERIS_TYPE": 0, "CLASSIFICATION_TYPE": "U", "NORAD_CAT_ID": 40664, "ELEMENT_SET_NO": 999, "REV_AT_EPOCH": 3860, "BSTAR": 0, "MEAN_MOTION_DOT": -2.17e-06, "MEAN_MOTION_DDOT": 0}, "tle": {"line1": "1 40664U 15026B   25348.25817669 -.00000217  00000+0  00000+0 0  9999", "line2": "2 40664   0.0405  81.3311 0002476 198.4179 177.6111  1.00272081 38608"}}, "geometry": {"type": "Point", "coordinates": [65.65279045132624, 0.01257851665923674]}}, {"type": "Feature", "properties": {"norad_id": 40874, "name": "INTELSAT 34 (IS-34)", "group": "intelsat", "lat": 0.02833005461408363, "lon": 88.8937308167258, "alt_km": 35785.12166388607, "timestamp": "2025-12-15T04:01:20.110795+00:00", "meta": {"OBJECT_NAME": "INTELSAT 34 (IS-34)", "OBJECT_ID": "2015-039A", "EPOCH": "2025-12-14T06:18:23.332320", "MEAN_MOTION": 1.00272082, "ECCENTRICITY": 5.895e-05, "INCLINATION": 0.0131, "RA_OF_ASC_NODE": 321.2524, "ARG_OF_PERICENTER": 194.4725, "MEAN_ANOMALY": 326.5566, "EPHEMERIS_TYPE": 0, "CLASSIFICATION_TYPE": "U", "NORAD_CAT_ID": 40874, "ELEMENT_SET_NO": 999, "REV_AT_EPOCH": 3777, "BSTAR": 0, "MEAN_MOTION_DOT": -2.68e-06, "MEAN_MOTION_DDOT": 0}, "tle": {"line1": "1 40874U 15039A   25348.26277005 -.00000268  00000+0  00000+0 0  9997", "line2": "2 40874   0.0131 321.2524 0000589 194.4725 326.5566  1.00272082 37772"}}, "geometry": {"type": "Point", "coordinates": [88.8937308167258, 0.02833005461408363]}}, {"type": "Feature", "properties": {"norad_id": 41581, "name": "INTELSAT 31 (IS-31)", "group": "intelsat", "lat": 0.02499902254551456, "lon": 49.341976792321766, "alt_km": 35793.552746682704, "timestamp": "2025-12-15T04:01:20.110806+00:00", "meta": {"OBJECT_NAME": "INTELSAT 31 (IS-31)", "OBJECT_ID": "2016-035A", "EPOCH": "2025-12-14T02:41:36.595104", "MEAN_MOTION": 1.00272578, "ECCENTRICITY": 0.00019083, "INCLINATION": 0.0192, "RA_OF_ASC_NODE": 270.6187, "ARG_OF_PERICENTER": 300.5753, "MEAN_ANOMALY": 177.1907, "EPHEMERIS_TYPE": 0, "CLASSIFICATION_TYPE": "U", "NORAD_CAT_ID": 41581, "ELEMENT_SET_NO": 999, "REV_AT_EPOCH": 3482, "BSTAR": 0, "MEAN_MOTION_DOT": -1.34e-06, "MEAN_MOTION_DDOT": 0}, "tle": {"line1": "1 41581U 16035A   25348.11222911 -.00000134  00000+0  00000+0 0  9992", "line2": "2 41581   0.0192 270.6187 0001908 300.5753 177.1907  1.00272578 34826"}}, "geometry": {"type": "Point", "coordinates": [49.341976792321766, 0.02499902254551456]}}, {"type": "Feature", "properties": {"norad_id": 41747, "name": "INTELSAT 36 (IS-36)", "group": "intelsat", "lat": -0.023160829114263266, "lon": -147.12797047891738, "alt_km": 35788.1664694312, "timestamp": "2025-12-15T04:01:20.110818+00:00", "meta": {"OBJECT_NAME": "INTELSAT 36 (IS-36)", "OBJECT_ID": "2016-053A", "EPOCH": "2025-12-14T05:10:52.299840", "MEAN_MOTION": 1.00271084, "ECCENTRICITY": 0.00012451, "INCLINATION": 0.0113, "RA_OF_ASC_NODE": 355.5011, "ARG_OF_PERICENTER": 329.0243, "MEAN_ANOMALY": 264.8185, "EPHEMERIS_TYPE": 0, "CLASSIFICATION_TYPE": "U", "NORAD_CAT_ID": 41747, "ELEMENT_SET_NO": 999, "REV_AT_EPOCH": 3409, "BSTAR": 0, "MEAN_MOTION_DOT": -7e-08, "MEAN_MOTION_DDOT": 0}, "tle": {"line1": "1 41747U 16053A   25348.21588310 -.00000007  00000+0  00000+0 0  9994", "line2": "2 41747   0.0113 355.5011 0001245 329.0243 264.8185  1.00271084 34098"}}, "geometry": {"type": "Point", "coordinates": [-147.12797047891738, -0.023160829114263266]}}, {"type": "Feature", "properties": {"norad_id": 41945, "name": "INTELSAT 32E (IS-32E)", "group": "intelsat", "lat": 0.026343656898563862, "lon": 101.2205252753672, "alt_km": 35785.974343499336, "timestamp": "2025-12-15T04:01:20.110830+00:00", "meta": {"OBJECT_NAME": "INTELSAT 32E (IS-32E)", "OBJECT_ID": "2017-007B", "EPOCH": "2025-12-14T04:39:10.335168", "MEAN_MOTION": 1.00271461, "ECCENTRICITY": 5.177e-05, "INCLINATION": 0.0343, "RA_OF_ASC_NODE": 82.1213, "ARG_OF_PERICENTER": 296.656, "MEAN_ANOMALY": 90.9489, "EPHEMERIS_TYPE": 0, "CLASSIFICATION_TYPE": "U", "NORAD_CAT_ID": 41945, "ELEMENT_SET_NO": 999, "REV_AT_EPOCH": 3237, "BSTAR": 0, "MEAN_MOTION_DOT": -2.51e-06, "MEAN_MOTION_DDOT": 0}, "tle": {"line1": "1 41945U 17007B   25348.19386962 -.00000251  00000+0  00000+0 0  9991", "line2": "2 41945   0.0343  82.1213 0000517 296.6560  90.9489  1.00271461 32375"}}, "geometry": {"type": "Point", "coordinates": [101.2205252753672, 0.026343656898563862]}}, {"type": "Feature", "properties": {"norad_id": 42818, "name": "INTELSAT 35E (IS-35E)", "group": "intelsat", "lat": 0.03248343685507633, "lon": 109.90053046128087, "alt_km": 35793.59877952977, "timestamp": "2025-12-15T04:01:20.110842+00:00", "meta": {"OBJECT_NAME": "INTELSAT 35E (IS-35E)", "OBJECT_ID": "2017-041A", "EPOCH": "2025-12-14T06:24:22.758912", "MEAN_MOTION": 1.00275463, "ECCENTRICITY": 0.00021356, "INCLINATION": 0.0231, "RA_OF_ASC_NODE": 337.8472, "ARG_OF_PERICENTER": 291.7851, "MEAN_ANOMALY": 235.149, "EPHEMERIS_TYPE": 0, "CLASSIFICATION_TYPE": "U", "NORAD_CAT_ID": 42818, "ELEMENT_SET_NO": 999, "REV_AT_EPOCH": 3096, "BSTAR": 0, "MEAN_MOTION_DOT": 0, "MEAN_MOTION_DDOT": 0}, "tle": {"line1": "1 42818U 17041A   25348.26693008  .00000000  00000+0  00000+0 0  9990", "line2": "2 42818   0.0231 337.8472 0002135 291.7851 235.1490  1.00275463 30969"}}, "geometry": {"type": "Point", "coordinates": [109.90053046128087, 0.03248343685507633]}}, {"type": "Feature", "properties": {"norad_id": 42950, "name": "INTELSAT 37E (IS-37E)", "group": "intelsat", "lat": 0.0012166151297788284, "lon": 126.3803232184644, "alt_km": 35794.353748664114, "timestamp": "2025-12-15T04:01:20.110854+00:00", "meta": {"OBJECT_NAME": "INTELSAT 37E (IS-37E)", "OBJECT_ID": "2017-059A", "EPOCH": "2025-12-14T06:29:07.305216", "MEAN_MOTION": 1.00272141, "ECCENTRICITY": 0.00030233, "INCLINATION": 0.0037, "RA_OF_ASC_NODE": 73.3863, "ARG_OF_PERICENTER": 183.646, "MEAN_ANOMALY": 265.4459, "EPHEMERIS_TYPE": 0, "CLASSIFICATION_TYPE": "U", "NORAD_CAT_ID": 42950, "ELEMENT_SET_NO": 999, "REV_AT_EPOCH": 3021, "BSTAR": 0, "MEAN_MOTION_DOT": -1.23e-06, "MEAN_MOTION_DDOT": 0}, "tle": {"line1": "1 42950U 17059A   25348.27022344 -.00000123  00000+0  00000+0 0  9993", "line2": "2 42950   0.0037  73.3863 0003023 183.6460 265.4459  1.00272141 30217"}}, "geometry": {"type": "Point", "coordinates": [126.3803232184644, 0.0012166151297788284]}}, {"type": "Feature", "properties": {"norad_id": 43632, "name": "AZERSPACE 2 (IS-38)", "group": "intelsat", "lat": -0.02610303887711934, "lon": -170.50015365700762, "alt_km": 35784.6247392533, "timestamp": "2025-12-15T04:01:20.110866+00:00", "meta": {"OBJECT_NAME": "AZERSPACE 2 (IS-38)", "OBJECT_ID": "2018-074A", "EPOCH": "2025-12-14T06:46:58.095840", "MEAN_MOTION": 1.00270341, "ECCENTRICITY": 0.00012827, "INCLINATION": 0.0192, "RA_OF_ASC_NODE": 326.4422, "ARG_OF_PERICENTER": 294.2058, "MEAN_ANOMALY": 329.4162, "EPHEMERIS_TYPE": 0, "CLASSIFICATION_TYPE": "U", "NORAD_CAT_ID": 43632, "ELEMENT_SET_NO": 999, "REV_AT_EPOCH": 2659, "BSTAR": 0, "MEAN_MOTION_DOT": 1.54e-06, "MEAN_MOTION_DDOT": 0}, "tle": {"line1": "1 43632U 18074A   25348.28261685  .00000154  00000+0  00000+0 0  9996", "line2": "2 43632   0.0192 326.4422 0001282 294.2058 329.4162  1.00270341 26595"}}, "geometry": {"type": "Point", "coordinates": [-170.50015365700762, -0.02610303887711934]}}, {"type": "Feature", "properties": {"norad_id": 43633, "name": "HORIZONS-3E", "group": "intelsat", "lat": 0.022941824219091914, "lon": -46.61217937747845, "alt_km": 35782.9136877604, "timestamp": "2025-12-15T04:01:20.110878+00:00", "meta": {"OBJECT_NAME": "HORIZONS-3E", "OBJECT_ID": "2018-074B", "EPOCH": "2025-12-14T05:39:42.038208", "MEAN_MOTION": 1.00269869, "ECCENTRICITY": 9.947e-05, "INCLINATION": 0.0445, "RA_OF_ASC_NODE": 188.7053, "ARG_OF_PERICENTER": 95.8686, "MEAN_ANOMALY": 52.498, "EPHEMERIS_TYPE": 0, "CLASSIFICATION_TYPE": "U", "NORAD_CAT_ID": 43633, "ELEMENT_SET_NO": 999, "REV_AT_EPOCH": 2648, "BSTAR": 0, "MEAN_MOTION_DOT": -1.3e-07, "MEAN_MOTION_DDOT": 0}, "tle": {"line1": "1 43633U 18074B   25348.23590322 -.00000013  00000+0  00000+0 0  9990", "line2": "2 43633   0.0445 188.7053 0000994  95.8686  52.4980  1.00269869 26489"}}, "geometry": {"type": "Point", "coordinates": [-46.61217937747845, 0.022941824219091914]}}, {"type": "Feature", "properties": {"norad_id": 44333, "name": "AT&T T-16", "group": "intelsat", "lat": 0.007252525455072323, "lon": 43.524209009765656, "alt_km": 35786.65239851619, "timestamp": "2025-12-15T04:01:20.110889+00:00", "meta": {"OBJECT_NAME": "AT&T T-16", "OBJECT_ID": "2019-034A", "EPOCH": "2025-12-14T07:45:38.704032", "MEAN_MOTION": 1.00269585, "ECCENTRICITY": 6.69e-05, "INCLINATION": 0.0267, "RA_OF_ASC_NODE": 71.2439, "ARG_OF_PERICENTER": 61.2679, "MEAN_ANOMALY": 326.2825, "EPHEMERIS_TYPE": 0, "CLASSIFICATION_TYPE": "U", "NORAD_CAT_ID": 44333, "ELEMENT_SET_NO": 999, "REV_AT_EPOCH": 2378, "BSTAR": 0, "MEAN_MOTION_DOT": -9.7e-07, "MEAN_MOTION_DDOT": 0}, "tle": {"line1": "1 44333U 19034A   25348.32336463 -.00000097  00000+0  00000+0 0  9991", "line2": "2 44333   0.0267  71.2439 0000669  61.2679 326.2825  1.00269585 23786"}}, "geometry": {"type": "Point", "coordinates": [43.524209009765656, 0.007252525455072323]}}]}